{"type": "FeatureCollection", "features": [{"type": "Feature", "properties": {"norad_id": 2807, "name": "OPS 7218 (TRANSIT 16)", "group": "nnss", "lat": -64.76069753528422, "lon": 175.05630835827074, "alt_km": 1080.3245433639795, "timestamp": "2025-12-02T06:27:53.282125+00:00", "meta": {"OBJECT_NAME": "OPS 7218 (TRANSIT 16)", "OBJECT_ID": "1967-048A", "EPOCH": "2025-12-01T19:26:47.854176", "MEAN_MOTION": 13.50718957, "ECCENTRICITY": 0.0021367, "INCLINATION": 89.6737, "RA_OF_ASC_NODE": 354.3788, "ARG_OF_PERICENTER": 143.5784, "MEAN_ANOMALY": 29.8514, "EPHEMERIS_TYPE": 0, "CLASSIFICATION_TYPE": "U", "NORAD_CAT_ID": 2807, "ELEMENT_SET_NO": 999, "REV_AT_EPOCH": 88128, "BSTAR": 0.00019892, "MEAN_MOTION_DOT": 1.38e-06, "MEAN_MOTION_DDOT": 0}, "tle": {"line1": "1 02807U 67048A   25335.81027609  .00000138  00000+0  19892-3 0  9996", "line2": "2 02807  89.6737 354.3788 0021367 143.5784  29.8514 13.50718957881280"}}, "geometry": {"type": "Point", "coordinates": [175.05630835827074, -64.76069753528422]}}, {"type": "Feature", "properties": {"norad_id": 2965, "name": "OPS 4947 (TRANSIT 17)", "group": "nnss", "lat": -25.796566392130604, "lon": -154.40392815774476, "alt_km": 1048.311416395395, "timestamp": "2025-12-02T06:27:53.282147+00:00", "meta": {"OBJECT_NAME": "OPS 4947 (TRANSIT 17)", "OBJECT_ID": "1967-092A", "EPOCH": "2025-12-01T17:36:36.940896", "MEAN_MOTION": 13.5344936, "ECCENTRICITY": 0.004573, "INCLINATION": 89.2508, "RA_OF_ASC_NODE": 25.2744, "ARG_OF_PERICENTER": 267.6148, "MEAN_ANOMALY": 210.3913, "EPHEMERIS_TYPE": 0, "CLASSIFICATION_TYPE": "U", "NORAD_CAT_ID": 2965, "ELEMENT_SET_NO": 999, "REV_AT_EPOCH": 86948, "BSTAR": 0.00018936, "MEAN_MOTION_DOT": 1.39e-06, "MEAN_MOTION_DDOT": 0}, "tle": {"line1": "1 02965U 67092A   25335.73376089  .00000139  00000+0  18936-3 0  9999", "line2": "2 02965  89.2508  25.2744 0045730 267.6148 210.3913 13.53449360869485"}}, "geometry": {"type": "Point", "coordinates": [-154.40392815774476, -25.796566392130604]}}, {"type": "Feature", "properties": {"norad_id": 3133, "name": "OPS 7034 (TRANSIT 18)", "group": "nnss", "lat": 65.76764653664372, "lon": -86.44955007868057, "alt_km": 1097.5502259296936, "timestamp": "2025-12-02T06:27:53.282161+00:00", "meta": {"OBJECT_NAME": "OPS 7034 (TRANSIT 18)", "OBJECT_ID": "1968-012A", "EPOCH": "2025-12-01T19:44:27.919104", "MEAN_MOTION": 13.51561913, "ECCENTRICITY": 0.0072844, "INCLINATION": 90.0267, "RA_OF_ASC_NODE": 273.6086, "ARG_OF_PERICENTER": 200.9332, "MEAN_ANOMALY": 212.7128, "EPHEMERIS_TYPE": 0, "CLASSIFICATION_TYPE": "U", "NORAD_CAT_ID": 3133, "ELEMENT_SET_NO": 999, "REV_AT_EPOCH": 56771, "BSTAR": 0.00012582, "MEAN_MOTION_DOT": 9.3e-07, "MEAN_MOTION_DDOT": 0}, "tle": {"line1": "1 03133U 68012A   25335.82254536  .00000093  00000+0  12582-3 0  9992", "line2": "2 03133  90.0267 273.6086 0072844 200.9332 212.7128 13.51561913567716"}}, "geometry": {"type": "Point", "coordinates": [-86.44955007868057, 65.76764653664372]}}, {"type": "Feature", "properties": {"norad_id": 4507, "name": "NNSS 19 (TRANSIT 19)", "group": "nnss", "lat": 49.222768887695224, "lon": -125.48019771199044, "alt_km": 1050.546741638961, "timestamp": "2025-12-02T06:27:53.282173+00:00", "meta": {"OBJECT_NAME": "NNSS 19 (TRANSIT 19)", "OBJECT_ID": "1970-067A", "EPOCH": "2025-12-01T17:47:11.230944", "MEAN_MOTION": 13.51310415, "ECCENTRICITY": 0.0171317, "INCLINATION": 90.0056, "RA_OF_ASC_NODE": 234.526, "ARG_OF_PERICENTER": 325.4641, "MEAN_ANOMALY": 33.5474, "EPHEMERIS_TYPE": 0, "CLASSIFICATION_TYPE": "U", "NORAD_CAT_ID": 4507, "ELEMENT_SET_NO": 999, "REV_AT_EPOCH": 72073, "BSTAR": 0.00022172, "MEAN_MOTION_DOT": 1.66e-06, "MEAN_MOTION_DDOT": 0}, "tle": {"line1": "1 04507U 70067A   25335.74110221  .00000166  00000+0  22172-3 0  9991", "line2": "2 04507  90.0056 234.5260 0171317 325.4641  33.5474 13.51310415720734"}}, "geometry": {"type": "Point", "coordinates": [-125.48019771199044, 49.222768887695224]}}, {"type": "Feature", "properties": {"norad_id": 6909, "name": "NNSS 20 (TRANSIT 20)", "group": "nnss", "lat": 81.92417389171277, "lon": -103.76980034584533, "alt_km": 884.2975743165616, "timestamp": "2025-12-02T06:27:53.282184+00:00", "meta": {"OBJECT_NAME": "NNSS 20 (TRANSIT 20)", "OBJECT_ID": "1973-081A", "EPOCH": "2025-12-01T19:33:52.680384", "MEAN_MOTION": 13.71426658, "ECCENTRICITY": 0.0156418, "INCLINATION": 89.8555, "RA_OF_ASC_NODE": 255.218, "ARG_OF_PERICENTER": 110.6716, "MEAN_ANOMALY": 251.1296, "EPHEMERIS_TYPE": 0, "CLASSIFICATION_TYPE": "U", "NORAD_CAT_ID": 6909, "ELEMENT_SET_NO": 999, "REV_AT_EPOCH": 80211, "BSTAR": 0.00022968, "MEAN_MOTION_DOT": 2.37e-06, "MEAN_MOTION_DDOT": 0}, "tle": {"line1": "1 06909U 73081A   25335.81519306  .00000237  00000+0  22968-3 0  9995", "line2": "2 06909  89.8555 255.2180 0156418 110.6716 251.1296 13.71426658802117"}}, "geometry": {"type": "Point", "coordinates": [-103.76980034584533, 81.92417389171277]}}, {"type": "Feature", "properties": {"norad_id": 10457, "name": "TRANSAT", "group": "nnss", "lat": 38.656192557482825, "lon": -101.31395573285448, "alt_km": 1069.8616670233532, "timestamp": "2025-12-02T06:27:53.282195+00:00", "meta": {"OBJECT_NAME": "TRANSAT", "OBJECT_ID": "1977-106A", "EPOCH": "2025-12-01T17:52:00.130080", "MEAN_MOTION": 13.48940794, "ECCENTRICITY": 0.0024426, "INCLINATION": 89.6482, "RA_OF_ASC_NODE": 78.9862, "ARG_OF_PERICENTER": 222.0713, "MEAN_ANOMALY": 251.8633, "EPHEMERIS_TYPE": 0, "CLASSIFICATION_TYPE": "U", "NORAD_CAT_ID": 10457, "ELEMENT_SET_NO": 999, "REV_AT_EPOCH": 36595, "BSTAR": 0.00010561, "MEAN_MOTION_DOT": 7.6e-07, "MEAN_MOTION_DDOT": 0}, "tle": {"line1": "1 10457U 77106A   25335.74444595  .00000076  00000+0  10561-3 0  9996", "line2": "2 10457  89.6482  78.9862 0024426 222.0713 251.8633 13.48940794365956"}}, "geometry": {"type": "Point", "coordinates": [-101.31395573285448, 38.656192557482825]}}, {"type": "Feature", "properties": {"norad_id": 12458, "name": "NOVA 1", "group": "nnss", "lat": -70.84185705135154, "lon": 91.10717239872946, "alt_km": 1190.605797507068, "timestamp": "2025-12-02T06:27:53.282205+00:00", "meta": {"OBJECT_NAME": "NOVA 1", "OBJECT_ID": "1981-044A", "EPOCH": "2025-12-01T20:34:27.784992", "MEAN_MOTION": 13.2327664, "ECCENTRICITY": 0.0015538, "INCLINATION": 89.8521, "RA_OF_ASC_NODE": 91.539, "ARG_OF_PERICENTER": 130.8226, "MEAN_ANOMALY": 356.2867, "EPHEMERIS_TYPE": 0, "CLASSIFICATION_TYPE": "U", "NORAD_CAT_ID": 12458, "ELEMENT_SET_NO": 999, "REV_AT_EPOCH": 15042, "BSTAR": 0.00010996, "MEAN_MOTION_DOT": 5.6e-07, "MEAN_MOTION_DDOT": 0}, "tle": {"line1": "1 12458U 81044A   25335.85726603  .00000056  00000+0  10996-3 0  9990", "line2": "2 12458  89.8521  91.5390 0015538 130.8226 356.2867 13.23276640150429"}}, "geometry": {"type": "Point", "coordinates": [91.10717239872946, -70.84185705135154]}}, {"type": "Feature", "properties": {"norad_id": 15362, "name": "NOVA 3", "group": "nnss", "lat": 9.193979182649526, "lon": -99.56881872450971, "alt_km": 1198.0526089900923, "timestamp": "2025-12-02T06:27:53.282215+00:00", "meta": {"OBJECT_NAME": "NOVA 3", "OBJECT_ID": "1984-110A", "EPOCH": "2025-12-01T19:22:39.459360", "MEAN_MOTION": 13.23042465, "ECCENTRICITY": 0.0031379, "INCLINATION": 90.1225, "RA_OF_ASC_NODE": 80.4059, "ARG_OF_PERICENTER": 2.6427, "MEAN_ANOMALY": 128.9402, "EPHEMERIS_TYPE": 0, "CLASSIFICATION_TYPE": "U", "NORAD_CAT_ID": 15362, "ELEMENT_SET_NO": 999, "REV_AT_EPOCH": 98554, "BSTAR": 0.00010872, "MEAN_MOTION_DOT": 5.4e-07, "MEAN_MOTION_DDOT": 0}, "tle": {"line1": "1 15362U 84110A   25335.80740115  .00000054  00000+0  10872-3 0  9994", "line2": "2 15362  90.1225  80.4059 0031379   2.6427 128.9402 13.23042465985545"}}, "geometry": {"type": "Point", "coordinates": [-99.56881872450971, 9.193979182649526]}}, {"type": "Feature", "properties": {"norad_id": 15935, "name": "OSCAR 30", "group": "nnss", "lat": 58.86430693276368, "lon": -80.0515564045973, "alt_km": 992.455808831015, "timestamp": "2025-12-02T06:27:53.282226+00:00", "meta": {"OBJECT_NAME": "OSCAR 30", "OBJECT_ID": "1985-066A", "EPOCH": "2025-12-01T17:54:40.721760", "MEAN_MOTION": 13.36075315, "ECCENTRICITY": 0.0169313, "INCLINATION": 90.1645, "RA_OF_ASC_NODE": 99.6675, "ARG_OF_PERICENTER": 114.5928, "MEAN_ANOMALY": 11.8379, "EPHEMERIS_TYPE": 0, "CLASSIFICATION_TYPE": "U", "NORAD_CAT_ID": 15935, "ELEMENT_SET_NO": 999, "REV_AT_EPOCH": 96306, "BSTAR": 0.00015981, "MEAN_MOTION_DOT": 9.9e-07, "MEAN_MOTION_DDOT": 0}, "tle": {"line1": "1 15935U 85066A   25335.74630465  .00000099  00000+0  15981-3 0  9995", "line2": "2 15935  90.1645  99.6675 0169313 114.5928  11.8379 13.36075315963062"}}, "geometry": {"type": "Point", "coordinates": [-80.0515564045973, 58.86430693276368]}}, {"type": "Feature", "properties": {"norad_id": 15936, "name": "OSCAR 24", "group": "nnss", "lat": -23.56318234908794, "lon": -87.95768289514349, "alt_km": 1114.1856249381735, "timestamp": "2025-12-02T06:27:53.282236+00:00", "meta": {"OBJECT_NAME": "OSCAR 24", "OBJECT_ID": "1985-066B", "EPOCH": "2025-12-01T19:14:51.020160", "MEAN_MOTION": 13.35933143, "ECCENTRICITY": 0.0170331, "INCLINATION": 90.1785, "RA_OF_ASC_NODE": 92.112, "ARG_OF_PERICENTER": 120.8758, "MEAN_ANOMALY": 354.126, "EPHEMERIS_TYPE": 0, "CLASSIFICATION_TYPE": "U", "NORAD_CAT_ID": 15936, "ELEMENT_SET_NO": 999, "REV_AT_EPOCH": 96497, "BSTAR": 0.00011159, "MEAN_MOTION_DOT": 7.2e-07, "MEAN_MOTION_DDOT": 0}, "tle": {"line1": "1 15936U 85066B   25335.80197940  .00000072  00000+0  11159-3 0  9993", "line2": "2 15936  90.1785  92.1120 0170331 120.8758 354.1260 13.35933143964978"}}, "geometry": {"type": "Point", "coordinates": [-87.95768289514349, -23.56318234908794]}}]}